satname,norad_id,inclination_deg,eccentricity,mean_motion_rev_per_day,perigee_km,apogee_km,l1,l2
STARLINK-1454,45671,53.0514,0.0008445,15.49015828,413.86316390189313,425.34454820776864,1 45671U 20035Q   26060.36869871  .00101162  00000+0  18199-2 0  9995,2 45671  53.0514  92.7865 0008445  25.7859 334.3568 15.49015828317621
STARLINK-1456,45673,53.0486,0.0001574,15.49470654,417.2037798059255,419.34328984228796,1 45673U 20035S   26060.36386732  .00029591  00000+0  53500-3 0  9998,2 45673  53.0486  86.2641 0001574  94.1502 265.9686 15.49470654317736
STARLINK-1457,45674,53.0471,0.0009992,15.76323664,334.1535487662095,347.5808067150074,1 45674U 20035T   26060.91668981  .00117030  00000+0  71990-3 0  9998,2 45674  53.0471  61.2890 0009992  37.8139 201.8293 15.76323664  5962
STARLINK-1458,45675,53.0521,0.0005882,15.41902902,436.48279216724495,444.5042290999536,1 45675U 20035U   26060.32030881  .00083960  00000+0  19332-2 0  9991,2 45675  53.0521  95.2127 0005882  47.6317 312.5185 15.41902902317562
STARLINK-1460,45676,53.1209,0.0001032,15.22214264,498.45348012974773,499.87295489464304,1 45676U 20035V   26060.91668981  .00114770  00000+0  48691-2 0  9999,2 45676  53.1209 100.8003 0001032 138.7546 136.5438 15.22214264  5736
STARLINK-1392,45677,53.1382,8.33e-05,15.25750342,487.96123088533295,489.1052181447367,1 45677U 20035W   26060.91668981  .01804460  00000+0  63594-1 0  9991,2 45677  53.1382 100.8058 0000833 107.1277 104.9243 15.25750342  5781
STARLINK-1394,45679,53.0501,0.0002156,15.48232411,420.4307133712273,423.36288794607117,1 45679U 20035Y   26060.42285409  .00116448  00000+0  21499-2 0  9999,2 45679  53.0501  76.1762 0002156  86.6340 273.4914 15.48232411317874
STARLINK-1402,45685,53.0475,0.000126,15.43320703,435.4582064749702,437.17544883953997,1 45685U 20035AE  26060.30491000  .00085943  00000+0  18873-2 0  9996,2 45685  53.0475  63.2696 0001260 234.3667 125.7221 15.43320703318051
STARLINK-1404,45686,53.1621,0.0001506,15.30199928,474.1831695443234,476.24739925238464,1 45686U 20035AF  26060.46620729  .00001337  00000+0  57263-4 0  9999,2 45686  53.1621  87.8952 0001506  93.3441 266.7732 15.30199928317713
STARLINK-1413,45689,53.1605,0.0001355,15.30195467,474.2999731342925,476.15723521302425,1 45689U 20035AJ  26060.34188429  .00002691  00000+0  10297-3 0  9994,2 45689  53.1605  88.3525 0001355  78.3780 281.7372 15.30195467317611
STARLINK-1417,45693,53.0506,0.0002776,15.1196597,528.2872593676284,532.1227708544184,1 45693U 20035AN  26060.40279647  .00028726  00000+0  16659-2 0  9993,2 45693  53.0506  91.8536 0002776 212.9511 147.1308 15.11965970317642
STARLINK-1420,45695,53.0544,0.0003523,15.51804213,409.0663524654392,413.8503013327727,1 45695U 20035AQ  26060.43892759  .00100130  00000+0  16339-2 0  9998,2 45695  53.0544  62.1682 0003523  59.7049 300.4308 15.51804213318071
STARLINK-1422,45696,53.1602,0.0001359,15.30202511,474.27620250884775,476.1389415635276,1 45696U 20035AR  26060.34925914  .00001782  00000+0  72277-4 0  9997,2 45696  53.1602  88.3224 0001359  86.7609 273.3547 15.30202511317697
STARLINK-1351,45697,53.0534,0.0002554,15.50428694,413.73840224930063,417.20857848778087,1 45697U 20035AS  26060.40896559  .00038049  00000+0  66213-3 0  9995,2 45697  53.0534  61.4419 0002554  98.1640 261.9658 15.50428694318083
STARLINK-1398,45699,53.0392,0.0004368,15.89994436,299.38043047925566,305.2164588837286,1 45699U 20035AU  26060.91668981  .00243953  32811-4  80588-3 0  9992,2 45699  53.0392 338.9408 0004368 121.5553 200.1363 15.89994436  5980
STARLINK-1400,45700,53.0513,0.0007401,15.48789524,415.23451745749117,425.2975136010773,1 45700U 20035AV  26060.81986071  .00102491  00000+0  18586-2 0  9996,2 45700  53.0513  60.7019 0007401  61.1756 298.9993 15.48789524318123
STARLINK-1403,45701,53.055,0.0001503,15.06403755,546.1591712694726,548.2409275865311,1 45701U 20035AW  26060.31483043  .00001160  00000+0  96752-4 0  9997,2 45701  53.0550  74.2160 0001503  87.7331 272.3830 15.06403755317883
STARLINK-1407,45703,53.0364,0.001182,15.57892902,385.75195798641926,401.7607138325102,1 45703U 20035AY  26060.91668981  .00086372  00000+0  11275-2 0  9994,2 45703  53.0364 353.5718 0011820  75.3623 147.9667 15.57892902  5971
STARLINK-1411,45706,53.0457,0.0005413,15.60177174,383.4828074730549,390.8069016087811,1 45706U 20035BB  26060.30696853  .00104947  00000+0  12554-2 0  9999,2 45706  53.0457  22.3409 0005413  92.0664 268.0968 15.60177174318615
STARLINK-1423,45710,53.0517,0.0006831,15.50900661,409.45536800212994,418.7349155542279,1 45710U 20035BF  26060.28378485  .00082027  00000+0  13861-2 0  9995,2 45710  53.0517  62.4622 0006831  72.4811 287.6943 15.50900661318041
STARLINK-1433,45711,53.0511,0.0006908,15.53061013,403.107166883874,412.48261038120927,1 45711U 20035BG  26060.83442450  .00109872  00000+0  17098-2 0  9995,2 45711  53.0511  58.9731 0006908  65.9055 294.2676 15.53061013318149
STARLINK-1434,45712,53.0557,0.0004777,15.25696122,485.41562205577884,491.9761942162122,1 45712U 20035BH  26060.25211212  .00052558  00000+0  20342-2 0  9996,2 45712  53.0557  59.0868 0004777  51.4356 308.7069 15.25696122318106
STARLINK-1465,45731,53.0519,0.0003349,15.48440665,419.00995649477136,423.56421074597984,1 45731U 20038B   26060.83899911  .00117829  00000+0  21590-2 0  9991,2 45731  53.0519 260.7879 0003349 177.8892 182.2130 15.48440665315161
STARLINK-1471,45735,53.0468,0.0001716,15.48364853,420.3422076296856,422.67584614611496,1 45735U 20038F   26060.70840689  .00032477  00000+0  60925-3 0  9990,2 45735  53.0468 180.2464 0001716 189.4943 170.6032 15.48364853316297
STARLINK-1480,45741,53.0507,0.0008536,15.46883239,420.04227833883033,431.65804522142025,1 45741U 20038M   26060.85032449  .00076246  00000+0  14840-2 0  9996,2 45741  53.0507 254.7134 0008536 152.6178 207.5280 15.46883239315261
STARLINK-1500,45744,53.0362,0.0002607,15.34238282,461.4004100338416,464.9674747732097,1 45744U 20038Q   26060.73182316  .00033077  00000+0  99071-3 0  9990,2 45744  53.0362 230.0669 0002607 200.0903 159.9995 15.34238282315598
STARLINK-1504,45746,53.0232,0.0001747,15.52532675,408.14856426609913,410.5201067507269,1 45746U 20038S   26060.70602898  .00036967  00000+0  59716-3 0  9994,2 45746  53.0232 180.6848 0001747 161.0895 199.0179 15.52532675316273
STARLINK-1506,45747,53.0752,0.0002859,15.25786712,486.4609542500466,490.3872538893529,1 45747U 20038T   26060.80069750  .00010119  00000+0  40358-3 0  9993,2 45747  53.0752 238.8446 0002859 191.0580 169.0355 15.25786712315488
STARLINK-1464,45751,53.051,0.0003753,15.4289755,435.0047872148443,440.12065142416577,1 45751U 20038X   26060.73197523  .00043276  00000+0  97377-3 0  9993,2 45751  53.0510 242.4316 0003753 187.3165 172.7786 15.42897550315428
STARLINK-1477,45754,53.0477,0.0001563,15.13767186,523.6449005448094,525.8027348364203,1 45754U 20038AA  26060.77803197  .00033573  00000+0  18477-2 0  9993,2 45754  53.0477 248.9095 0001563  87.0181 273.0990 15.13767186315330
STARLINK-1478,45755,53.0521,0.0005011,15.53222997,403.9228878970607,410.7232759911849,1 45755U 20038AB  26060.78771762  .00102098  00000+0  15823-2 0  9998,2 45755  53.0521 236.0408 0005011 183.8066 176.2906 15.53222997315506
STARLINK-1484,45756,53.0002,0.0006899,15.96248272,280.24168582141556,289.4352593785088,1 45756U 20038AC  26060.91668981  .00422372  83553-4  99670-3 0  9994,2 45756  53.0002  96.7480 0006899  27.5583  81.2669 15.96248272  6065
STARLINK-1493,45759,53.0527,0.0004068,15.48887543,417.21372108386186,422.74466841991125,1 45759U 20038AF  26060.91668981  .00259137  00000+0  45808-2 0  9998,2 45759  53.0527 241.7696 0004068  96.4591 339.1488 15.48887543  5779
STARLINK-1494,45760,53.0482,0.0003477,15.71957241,350.96314723276737,355.64419107409685,1 45760U 20038AG  26060.74494905  .00103454  00000+0  77188-3 0  9991,2 45760  53.0482 191.0685 0003477 329.5139  30.5676 15.71957241316143
STARLINK-1502,45764,53.0509,9.68e-05,15.45639367,428.84108711885074,430.159045654902,1 45764U 20038AL  26060.80157387  .00096768  00000+0  19604-2 0  9999,2 45764  53.0509 243.6872 0000968  46.6030 313.5056 15.45639367315410
STARLINK-1470,45772,53.0457,7.4e-05,15.27130756,483.88679660933394,484.90245128967763,1 45772U 20038AU  26060.82339187  .00058884  00000+0  21796-2 0  9992,2 45772  53.0457 210.8081 0000740 156.2903 203.8129 15.27130756315874
STARLINK-1482,45773,53.1601,0.0001336,15.30215177,474.25415222520496,476.0853557898763,1 45773U 20038AV  26060.77789834  .00014314  00000+0  49425-3 0  9995,2 45773  53.1601 227.7660 0001336  80.2342 279.8810 15.30215177315631
STARLINK-1496,45780,53.0527,0.000482,15.46515685,423.64812803499717,430.2082108583436,1 45780U 20038BC  26060.69720938  .00142608  00000+0  27822-2 0  9998,2 45780  53.0527 216.0186 0004820 179.4973 180.6039 15.46515685315772
STARLINK-1513,45786,53.1609,0.0001254,15.30234638,474.2522511652196,475.9710459262751,1 45786U 20038BJ  26060.72209961  .00014700  00000+0  50693-3 0  9990,2 45786  53.1609 228.1576 0001254  65.6433 294.4698 15.30234638315620
STARLINK-1522,46027,53.0568,0.0001364,15.07270857,543.599538165301,545.488045485311,1 46027U 20055A   26060.79943859  .00108038  00000+0  69951-2 0  9990,2 46027  53.0568 162.0282 0001364  65.7260 294.3872 15.07270857307691
STARLINK-1523,46028,53.0637,0.0001833,15.09344479,536.9340630818924,539.4695928962328,1 46028U 20055B   26060.91668981  .00007460  00000+0  47967-3 0  9996,2 46028  53.0637 161.4974 0001833  83.7523 116.5567 15.09344479  5283
STARLINK-1526,46029,53.0658,0.0001566,15.09911883,535.386182506857,537.5518371091284,1 46029U 20055C   26060.91668981  .00007790  00000+0  49245-3 0  9994,2 46029  53.0658 161.4857 0001566 101.2845 144.5150 15.09911883  5674
STARLINK-1555,46032,53.0551,0.0001241,15.07236721,543.7891973374872,545.5074326526692,1 46032U 20055F   26060.79270090  .00281998  00000+0  17800-1 0  9998,2 46032  53.0551 162.0662 0001241  73.6378 286.4748 15.07236721307701
